KUIPER-00035            
1 63748U 25088AA  25264.07259554  .00003270  00000+0  45808-3 0  9996
2 63748  51.9012 144.1487 0004340 222.6679 137.3946 14.79909411 22396
KUIPER-00037            
1 63749U 25088AB  25264.07394010 -.00000727  00000+0 -66144-4 0  9997
2 63749  51.8993 143.1023 0006976 168.9425 191.1692 14.79945766 23195
KUIPER-00038            
1 63750U 25088AC  25264.25003472 -.00053072  00000+0 -71919-2 0  9993
2 63750  51.8995 126.7317 0003829 221.1962 219.4953 14.78715230  5581
KUIPER-00039            
1 64500U 25134A   25264.25003472 -.01950800  00000+0 -19407+0 0  9996
2 64500  51.8955 262.6146 0012266  96.1130  34.8245 14.94678675  5080
KUIPER-00040            
1 64501U 25134B   25260.47128950 -.00003901  00000+0 -48293-3 0  9995
2 64501  51.8978 290.2147 0020650  67.0030 293.3108 14.79715372 14265
KUIPER-00041            
1 64502U 25134C   25264.31947324  .00005072  00000+0  69317-3 0  9996
2 64502  51.8969 274.5586 0014822  67.1355 293.1171 14.79926817 14810
KUIPER-00042            
1 64503U 25134D   25264.18484184  .00004629  00000+0  63681-3 0  9997
2 64503  51.8985 271.1140 0014608  75.5951 284.6631 14.79826840 14850
KUIPER-00043            
1 64504U 25134E   25264.25003472 -.00053663  00000+0 -48926-2 0  9991
2 64504  51.8909 263.7765 0007417  67.2486 292.6923 14.94801873  5903
